{"type": "FeatureCollection", "features": [ {"type": "Feature", "properties": {"norad_id": 40664, "name": "SKY MEXICO-1", "group": "intelsat", "lat": 0.04117448058272388, "lon": 70.44551878219939, "alt_km": 35794.12282705257, "timestamp": "2025-12-21T03:56:50.522217+00:00", "meta": {"OBJECT_NAME": "SKY MEXICO-1", "OBJECT_ID": "2015-026B", "EPOCH": "2025-12-20T18:03:23.114304", "MEAN_MOTION": 1.00271803, "ECCENTRICITY": 0.000233, "INCLINATION": 0.0156, "RA_OF_ASC_NODE": 344.7165, "ARG_OF_PERICENTER": 301.5706, "MEAN_ANOMALY": 355.3813, "EPHEMERIS_TYPE": 0, "CLASSIFICATION_TYPE": "U", "NORAD_CAT_ID": 40664, "ELEMENT_SET_NO": 999, "REV_AT_EPOCH": 3866, "BSTAR": 0, "MEAN_MOTION_DOT": -2.11e-06, "MEAN_MOTION_DDOT": 0}, "tle": {"line1": "1 40664U 15026B   25354.75235086 -.00000211  00000+0  00000+0 0  9992", "line2": "2 40664   0.0156 344.7165 0002330 301.5706 355.3813  1.00271803 38667"}}, "geometry": {"type": "Point", "coordinates": [70.44551878219939, 0.04117448058272388]}}, {"type": "Feature", "properties": {"norad_id": 40874, "name": "INTELSAT 34 (IS-34)", "group": "intelsat", "lat": 0.03764728335149573, "lon": 93.68268064791336, "alt_km": 35784.609682851515, "timestamp": "2025-12-21T03:56:50.522227+00:00", "meta": {"OBJECT_NAME": "INTELSAT 34 (IS-34)", "OBJECT_ID": "2015-039A", "EPOCH": "2025-12-20T18:06:09.029088", "MEAN_MOTION": 1.00271507, "ECCENTRICITY": 7.85e-05, "INCLINATION": 0.0154, "RA_OF_ASC_NODE": 334.6531, "ARG_OF_PERICENTER": 180.3511, "MEAN_ANOMALY": 150.6185, "EPHEMERIS_TYPE": 0, "CLASSIFICATION_TYPE": "U", "NORAD_CAT_ID": 40874, "ELEMENT_SET_NO": 999, "REV_AT_EPOCH": 3783, "BSTAR": 0, "MEAN_MOTION_DOT": -2.62e-06, "MEAN_MOTION_DDOT": 0}, "tle": {"line1": "1 40874U 15039A   25354.75427117 -.00000262  00000+0  00000+0 0  9993", "line2": "2 40874   0.0154 334.6531 0000785 180.3511 150.6185  1.00271507 37839"}}, "geometry": {"type": "Point", "coordinates": [93.68268064791336, 0.03764728335149573]}}, {"type": "Feature", "properties": {"norad_id": 41581, "name": "INTELSAT 31 (IS-31)", "group": "intelsat", "lat": 0.026395596912201415, "lon": 54.1298014270348, "alt_km": 35793.341110098845, "timestamp": "2025-12-21T03:56:50.522238+00:00", "meta": {"OBJECT_NAME": "INTELSAT 31 (IS-31)", "OBJECT_ID": "2016-035A", "EPOCH": "2025-12-20T14:29:23.871264", "MEAN_MOTION": 1.00271704, "ECCENTRICITY": 0.0001998, "INCLINATION": 0.0288, "RA_OF_ASC_NODE": 267.9464, "ARG_OF_PERICENTER": 295.2319, "MEAN_ANOMALY": 8.5584, "EPHEMERIS_TYPE": 0, "CLASSIFICATION_TYPE": "U", "NORAD_CAT_ID": 41581, "ELEMENT_SET_NO": 999, "REV_AT_EPOCH": 3489, "BSTAR": 0, "MEAN_MOTION_DOT": -1.27e-06, "MEAN_MOTION_DDOT": 0}, "tle": {"line1": "1 41581U 16035A   25354.60374851 -.00000127  00000+0  00000+0 0  9996", "line2": "2 41581   0.0288 267.9464 0001998 295.2319   8.5584  1.00271704 34891"}}, "geometry": {"type": "Point", "coordinates": [54.1298014270348, 0.026395596912201415]}}, {"type": "Feature", "properties": {"norad_id": 41747, "name": "INTELSAT 36 (IS-36)", "group": "intelsat", "lat": -0.023023758893138836, "lon": -142.3329419445399, "alt_km": 35788.06763034772, "timestamp": "2025-12-21T03:56:50.522248+00:00", "meta": {"OBJECT_NAME": "INTELSAT 36 (IS-36)", "OBJECT_ID": "2016-053A", "EPOCH": "2025-12-20T13:09:38.733408", "MEAN_MOTION": 1.00271779, "ECCENTRICITY": 0.000118, "INCLINATION": 0.0114, "RA_OF_ASC_NODE": 2.7331, "ARG_OF_PERICENTER": 328.9558, "MEAN_ANOMALY": 23.5927, "EPHEMERIS_TYPE": 0, "CLASSIFICATION_TYPE": "U", "NORAD_CAT_ID": 41747, "ELEMENT_SET_NO": 999, "REV_AT_EPOCH": 3415, "BSTAR": 0, "MEAN_MOTION_DOT": -1e-08, "MEAN_MOTION_DDOT": 0}, "tle": {"line1": "1 41747U 16053A   25354.54836497 -.00000001  00000+0  00000+0 0  9993", "line2": "2 41747   0.0114   2.7331 0001180 328.9558  23.5927  1.00271779 34152"}}, "geometry": {"type": "Point", "coordinates": [-142.3329419445399, -0.023023758893138836]}}, {"type": "Feature", "properties": {"norad_id": 41945, "name": "INTELSAT 32E (IS-32E)", "group": "intelsat", "lat": 0.03431437361530552, "lon": 106.01766044386405, "alt_km": 35785.14613511756, "timestamp": "2025-12-21T03:56:50.522259+00:00", "meta": {"OBJECT_NAME": "INTELSAT 32E (IS-32E)", "OBJECT_ID": "2017-007B", "EPOCH": "2025-12-20T16:26:45.777120", "MEAN_MOTION": 1.00271211, "ECCENTRICITY": 4.75e-05, "INCLINATION": 0.029, "RA_OF_ASC_NODE": 71.8228, "ARG_OF_PERICENTER": 338.6559, "MEAN_ANOMALY": 242.5522, "EPHEMERIS_TYPE": 0, "CLASSIFICATION_TYPE": "U", "NORAD_CAT_ID": 41945, "ELEMENT_SET_NO": 999, "REV_AT_EPOCH": 3243, "BSTAR": 0, "MEAN_MOTION_DOT": -2.46e-06, "MEAN_MOTION_DDOT": 0}, "tle": {"line1": "1 41945U 17007B   25354.68525205 -.00000246  00000+0  00000+0 0  9991", "line2": "2 41945   0.0290  71.8228 0000475 338.6559 242.5522  1.00271211 32438"}}, "geometry": {"type": "Point", "coordinates": [106.01766044386405, 0.03431437361530552]}}, {"type": "Feature", "properties": {"norad_id": 42818, "name": "INTELSAT 35E (IS-35E)", "group": "intelsat", "lat": 0.042184201830953755, "lon": 114.69231705524551, "alt_km": 35793.57950799499, "timestamp": "2025-12-21T03:56:50.522270+00:00", "meta": {"OBJECT_NAME": "INTELSAT 35E (IS-35E)", "OBJECT_ID": "2017-041A", "EPOCH": "2025-12-20T18:12:08.453952", "MEAN_MOTION": 1.00270957, "ECCENTRICITY": 0.0001844, "INCLINATION": 0.0175, "RA_OF_ASC_NODE": 22.7237, "ARG_OF_PERICENTER": 249.734, "MEAN_ANOMALY": 55.6772, "EPHEMERIS_TYPE": 0, "CLASSIFICATION_TYPE": "U", "NORAD_CAT_ID": 42818, "ELEMENT_SET_NO": 999, "REV_AT_EPOCH": 3102, "BSTAR": 0, "MEAN_MOTION_DOT": -2.15e-06, "MEAN_MOTION_DDOT": 0}, "tle": {"line1": "1 42818U 17041A   25354.75843118 -.00000215  00000+0  00000+0 0  9999", "line2": "2 42818   0.0175  22.7237 0001844 249.7340  55.6772  1.00270957 31026"}}, "geometry": {"type": "Point", "coordinates": [114.69231705524551, 0.042184201830953755]}}, {"type": "Feature", "properties": {"norad_id": 42950, "name": "INTELSAT 37E (IS-37E)", "group": "intelsat", "lat": 0.03802820512432358, "lon": 131.15457185216835, "alt_km": 35793.96009466677, "timestamp": "2025-12-21T03:56:50.522281+00:00", "meta": {"OBJECT_NAME": "INTELSAT 37E (IS-37E)", "OBJECT_ID": "2017-059A", "EPOCH": "2025-12-20T18:16:53.001120", "MEAN_MOTION": 1.00270832, "ECCENTRICITY": 0.0002954, "INCLINATION": 0.0183, "RA_OF_ASC_NODE": 15.0674, "ARG_OF_PERICENTER": 243.3658, "MEAN_ANOMALY": 87.3719, "EPHEMERIS_TYPE": 0, "CLASSIFICATION_TYPE": "U", "NORAD_CAT_ID": 42950, "ELEMENT_SET_NO": 999, "REV_AT_EPOCH": 3027, "BSTAR": 0, "MEAN_MOTION_DOT": -1.17e-06, "MEAN_MOTION_DDOT": 0}, "tle": {"line1": "1 42950U 17059A   25354.76172455 -.00000117  00000+0  00000+0 0  9996", "line2": "2 42950   0.0183  15.0674 0002954 243.3658  87.3719  1.00270832 30278"}}, "geometry": {"type": "Point", "coordinates": [131.15457185216835, 0.03802820512432358]}}, {"type": "Feature", "properties": {"norad_id": 43632, "name": "AZERSPACE 2 (IS-38)", "group": "intelsat", "lat": -0.00816045772246485, "lon": -165.71077069423313, "alt_km": 35785.02557379084, "timestamp": "2025-12-21T03:56:50.522291+00:00", "meta": {"OBJECT_NAME": "AZERSPACE 2 (IS-38)", "OBJECT_ID": "2018-074A", "EPOCH": "2025-12-20T17:47:21.490944", "MEAN_MOTION": 1.0027107, "ECCENTRICITY": 0.000116, "INCLINATION": 0.0009, "RA_OF_ASC_NODE": 355.7052, "ARG_OF_PERICENTER": 274.3723, "MEAN_ANOMALY": 131.4463, "EPHEMERIS_TYPE": 0, "CLASSIFICATION_TYPE": "U", "NORAD_CAT_ID": 43632, "ELEMENT_SET_NO": 999, "REV_AT_EPOCH": 2665, "BSTAR": 0, "MEAN_MOTION_DOT": 1.6e-06, "MEAN_MOTION_DDOT": 0}, "tle": {"line1": "1 43632U 18074A   25354.74122096  .00000160  00000+0  00000+0 0  9993", "line2": "2 43632   0.0009 355.7052 0001160 274.3723 131.4463  1.00271070 26651"}}, "geometry": {"type": "Point", "coordinates": [-165.71077069423313, -0.00816045772246485]}}, {"type": "Feature", "properties": {"norad_id": 43633, "name": "HORIZONS-3E", "group": "intelsat", "lat": 0.006510623243434476, "lon": -41.84008500648635, "alt_km": 35783.58334500751, "timestamp": "2025-12-21T03:56:50.522301+00:00", "meta": {"OBJECT_NAME": "HORIZONS-3E", "OBJECT_ID": "2018-074B", "EPOCH": "2025-12-20T14:02:03.988032", "MEAN_MOTION": 1.00269138, "ECCENTRICITY": 7.67e-05, "INCLINATION": 0.009, "RA_OF_ASC_NODE": 233.4534, "ARG_OF_PERICENTER": 88.2799, "MEAN_ANOMALY": 147.176, "EPHEMERIS_TYPE": 0, "CLASSIFICATION_TYPE": "U", "NORAD_CAT_ID": 43633, "ELEMENT_SET_NO": 999, "REV_AT_EPOCH": 2655, "BSTAR": 0, "MEAN_MOTION_DOT": 0, "MEAN_MOTION_DDOT": 0}, "tle": {"line1": "1 43633U 18074B   25354.58476838  .00000000  00000+0  00000+0 0  9995", "line2": "2 43633   0.0090 233.4534 0000767  88.2799 147.1760  1.00269138 26551"}}, "geometry": {"type": "Point", "coordinates": [-41.84008500648635, 0.006510623243434476]}}, {"type": "Feature", "properties": {"norad_id": 44333, "name": "AT&T T-16", "group": "intelsat", "lat": 0.009359388166253911, "lon": 48.298533419159284, "alt_km": 35789.68155770725, "timestamp": "2025-12-21T03:56:50.522312+00:00", "meta": {"OBJECT_NAME": "AT&T T-16", "OBJECT_ID": "2019-034A", "EPOCH": "2025-12-20T14:27:46.526112", "MEAN_MOTION": 1.00263761, "ECCENTRICITY": 0.0001552, "INCLINATION": 0.019, "RA_OF_ASC_NODE": 58.344, "ARG_OF_PERICENTER": 92.0528, "MEAN_ANOMALY": 55.1236, "EPHEMERIS_TYPE": 0, "CLASSIFICATION_TYPE": "U", "NORAD_CAT_ID": 44333, "ELEMENT_SET_NO": 999, "REV_AT_EPOCH": 2384, "BSTAR": 0, "MEAN_MOTION_DOT": -9.1e-07, "MEAN_MOTION_DDOT": 0}, "tle": {"line1": "1 44333U 19034A   25354.60262183 -.00000091  00000+0  00000+0 0  9990", "line2": "2 44333   0.0190  58.3440 0001552  92.0528  55.1236  1.00263761 23847"}}, "geometry": {"type": "Point", "coordinates": [48.298533419159284, 0.009359388166253911]}}]}